HORYU-4                 
1 41340U 16012D   20087.46400172  .00000475  00000-0  29257-4 0  9998
2 41340  31.0044 133.9041 0013948  54.8514 305.3427 15.01448438225549
E-ST@R-II               
1 41459U 16025D   20087.55694483  .00002763  00000-0  14140-3 0  9999
2 41459  98.0969 193.3358 0167042 127.2059 234.4489 15.06211963215112
AAUSAT 4                
1 41460U 16025E   20087.55150347  .00003147  00000-0  15620-3 0  9998
2 41460  98.0955 195.3771 0156152 117.0352 244.6848 15.08424295215290
DIWATA-1                
1 41463U 98067HT  20087.40185898  .00444555  12567-3  26520-3 0  9997
2 41463  51.6183 197.0953 0006960 338.2972 133.4411 16.17808561224797
BEESAT-4                
1 41619U 16040W   20087.41270337  .00001337  00000-0  58321-4 0  9993
2 41619  97.3291 148.8574 0012851 107.0628 253.2018 15.23793587196908
CANX-7                  
1 41788U 16059F   20087.24081377  .00007338  00000-0  10339-2 0  9997
2 41788  98.2496 173.0829 0031754 190.3750 169.6827 14.77231999187673
RAVAN                   
1 41849U 16067B   20087.54469290 -.00000222  00000-0 -13365-4 0  9992
2 41849  97.9252 196.0516 0008640 150.8990 209.2715 14.98486102184350
CELTEE 1                
1 41850U 16067C   20087.53229745 -.00000305  00000-0 -21162-4 0  9998
2 41850  97.9200 194.0030 0009255 152.6466 207.5244 14.97144994184240
OPTICUBE 04             
1 41851U 16067D   20087.24832251  .00000619  00000-0  59181-4 0  9997
2 41851  97.9191 193.3776 0009573 154.5150 205.6545 14.96899884184183
AEROCUBE 8D             
1 41852U 16067E   20087.53054071 -.00000234  00000-0 -15074-4 0  9994
2 41852  97.9199 193.4950 0010067 155.7264 204.4433 14.96866873184204
AEROCUBE 8C             
1 41853U 16067F   20087.56019817  .00000392  00000-0  39472-4 0  9998
2 41853  97.9187 193.4369 0010697 158.4586 201.7087 14.96825101184206
PROMETHEUS 2-1          
1 41854U 16067G   20087.27928873  .00000066  00000-0  11006-4 0  9999
2 41854  97.9197 193.4311 0010743 159.4174 200.7482 14.97120378184170
PROMETHEUS 2-3          
1 41855U 16067H   20087.54761975  .00000114  00000-0  15191-4 0  9991
2 41855  97.9200 193.7314 0010962 159.0768 201.0904 14.97130098184218
INS-1B                  
1 41954U 17008G   20087.44108726  .00001255  00000-0  53809-4 0  9990
2 41954  97.3627 153.2841 0007932 221.8381 138.2251 15.24574347172878
BGUSAT                  
1 41999U 17008BD  20087.18542156  .00002058  00000-0  80028-4 0  9994
2 41999  97.3727 156.7306 0006628 232.2263 127.8376 15.27155631172391
DIDO-2                  
1 42000U 17008BE  20087.45497374  .00000795  00000-0  35374-4 0  9999
2 42000  97.3635 153.8289 0006933 243.7253 116.3273 15.24341568172275
PEASSS                  
1 42015U 17008BV  20087.42669108  .00001071  00000-0  45212-4 0  9998
2 42015  97.3655 155.2403 0004763 246.3553 113.7185 15.25430438172840
AL-FARABI 1             
1 42016U 17008BW  20087.42616560  .00001418  00000-0  57559-4 0  9995
2 42016  97.3681 156.1539 0004641 244.6531 115.4227 15.26218640173018
NAYIF-1 (EO-88)         
1 42017U 17008BX  20087.14478728  .00001399  00000-0  56796-4 0  9997
2 42017  97.3675 155.8877 0004660 245.5689 114.5064 15.26256188172992
NSIGHT                  
1 42726U 98067MF  20087.25887850  .00180281  24436-4  38106-3 0  9995
2 42726  51.6257 284.7847 0005766 239.0609 120.9834 15.98397447162498
UCLSAT                  
1 42765U 17036A   20087.25022476  .00001136  00000-0  50688-4 0  9998
2 42765  97.3112 143.6624 0010121 322.7660  37.2874 15.23336906154061
LITUANICASAT-2          
1 42768U 17036D   20087.18773348  .00001803  00000-0  77778-4 0  9994
2 42768  97.3165 143.4555 0013254 310.0082  49.9991 15.23751602153312
AALTO-1                 
1 42775U 17036L   20087.25944207  .00000673  00000-0  32701-4 0  9995
2 42775  97.3091 141.7158 0012514 313.2840  46.7352 15.21718492153171
URSA MAIOR              
1 42776U 17036M   20087.19254130  .00000745  00000-0  35710-4 0  9991
2 42776  97.3103 141.9009 0012323 313.3597  46.6612 15.21887639153179
COMPASS 2               
1 42777U 17036N   20087.40070328  .00001484  00000-0  64696-4 0  9997
2 42777  97.3155 144.1081 0010855 311.4830  48.5474 15.23667481153304
DIAMOND RED             
1 42783U 17036U   20087.40546680  .00000892  00000-0  41225-4 0  9998
2 42783  97.3113 143.1640 0010837 323.6842  36.3658 15.22679139153269
PEGASUS                 
1 42784U 17036V   20087.39038493  .00001020  00000-0  46226-4 0  9995
2 42784  97.3117 143.5206 0010691 322.7644  37.2850 15.23037304153283
DIAMOND GREEN           
1 42785U 17036W   20087.40424315  .00000726  00000-0  34068-4 0  9993
2 42785  97.3115 143.1956 0010725 324.4454  35.6067 15.22677388153335
DIAMOND BLUE            
1 42786U 17036X   20087.40348071  .00000881  00000-0  40746-4 0  9990
2 42786  97.3115 143.1908 0010590 324.8262  35.2274 15.22678940153256
NUDTSAT                 
1 42787U 17036Y   20087.58121135  .00001486  00000-0  63682-4 0  9996
2 42787  97.3162 144.9193 0010959 321.4680  38.5776 15.24258078153228
SUCHAI                  
1 42788U 17036Z   20087.44337242  .00001171  00000-0  51844-4 0  9998
2 42788  97.3125 144.0870 0010187 321.2170  38.8336 15.23552620153398
SKCUBE                  
1 42789U 17036AA  20087.41563509  .00001141  00000-0  50811-4 0  9993
2 42789  97.3119 143.9366 0010084 321.6529  38.3990 15.23409589153305
VZLUSAT-1               
1 42790U 17036AB  20087.43832487  .00001496  00000-0  64137-4 0  9990
2 42790  97.3141 144.7760 0009522 319.6228  40.4302 15.24249392153358
ROBUSTA-1B              
1 42792U 17036AD  20087.31379363  .00001159  00000-0  51299-4 0  9999
2 42792  97.3121 144.0635 0009671 322.8948  37.1620 15.23595051153319
CICERO 6                
1 42793U 17036AE  20087.39856302  .00000788  00000-0  36411-4 0  9997
2 42793  97.3100 143.6548 0009080 325.8720  34.1932 15.23001747153373
D-SAT                   
1 42794U 17036AF  20087.51397880  .00000299  00000-0  31535-4 0  9992
2 42794  97.5038 124.1841 0124677 278.5826  80.1283 14.91240004150481
CORVUS BC2              
1 42846U 17042X   20087.49146391  .00000303  00000-0  35015-4 0  9996
2 42846  97.5346 334.6907 0009360 182.5432 177.5741 14.92075365147180
CORVUS BC1              
1 42847U 17042Y   20087.42564954  .00000319  00000-0  36548-4 0  9998
2 42847  97.5348 334.7824 0009021 181.6446 178.4745 14.92176414147171
MIRATA                  
1 43015U 17073C   20087.50647977  .00001176  00000-0  96932-4 0  9991
2 43015  97.7217   2.8308 0252834 316.1756  41.9636 14.79512864127109
MAKERSAT 0              
1 43016U 17073D   20087.51243594  .00000838  00000-0  70835-4 0  9998
2 43016  97.7254   3.0301 0255477 317.0044  41.1450 14.79118024127097
ASTERIA                 
1 43020U 98067NH  20087.03786685  .00178505  24062-4  39105-3 0  9994
2 43020  51.6414 298.8235 0003611 272.0591  88.0004 15.97782110134476
DELLINGR (RBLE)         
1 43021U 98067NJ  20087.30806159  .00013268  00000-0  11951-3 0  9999
2 43021  51.6371 339.0057 0002525 111.9074 248.2191 15.68556307133964
AEROCUBE 7B (OCSD B)    
1 43042U 17071F   20087.45503367  .00003435  00000-0  85933-4 0  9996
2 43042  51.6367 108.7577 0004953 101.8374 258.3167 15.43002839129710
AEROCUBE 7C (OCSD C)    
1 43043U 17071G   20087.45706630  .00003195  00000-0  80662-4 0  9992
2 43043  51.6367 108.7860 0005146 105.8681 254.2873 15.42978786129683
CHEFSAT                 
1 43044U 17071H   20087.36203340  .00008680  00000-0  17642-3 0  9994
2 43044  51.6373  97.1362 0004798 105.7905 254.3612 15.47138749129830
ASGARDIA 1              
1 43049U 17071N   20087.45353993  .00003059  00000-0  77402-4 0  9995
2 43049  51.6378 108.0756 0002711 115.6417 244.4849 15.43054336129691
ISARA                   
1 43050U 17071P   20087.55370765  .00006039  00000-0  12887-3 0  9990
2 43050  51.6354  98.3170 0002553 111.0338 249.0923 15.46327764129835
PROPCUBE 2 (FAUNA)      
1 43052U 17071R   20087.46269103  .00003859  00000-0  93969-4 0  9993
2 43052  51.6370 106.6553 0002679 111.8815 248.2456 15.43459524129705
CORVUS BC3              
1 43118U 18004H   20087.44738193  .00000703  00000-0  32656-4 0  9992
2 43118  97.4509 158.3657 0009858 349.7834  10.3201 15.23238596122518
MICROMAS-2A             
1 43131U 18004W   20087.50513392  .00001674  00000-0  69980-4 0  9994
2 43131  97.4551 159.8756 0008642 349.9920  10.1144 15.24996954122608
SPACEBEE-4              
1 43139U 18004AE  20087.47389028  .00002483  00000-0  98903-4 0  9991
2 43139  97.4578 160.8367 0007875 352.4258   7.6860 15.26164650122647
SPACEBEE-3              
1 43140U 18004AF  20087.46392829  .00003132  00000-0  12111-3 0  9993
2 43140  97.4592 161.3898 0007492 351.2664   8.8443 15.26961620122689
SPACEBEE-2              
1 43141U 18004AG  20087.45904122  .00003363  00000-0  12876-3 0  9992
2 43141  97.4604 161.5935 0007427 350.7558   9.3543 15.27233585122693
SPACEBEE-1              
1 43142U 18004AH  20087.44479866  .00003611  00000-0  13675-3 0  9998
2 43142  97.4607 161.7936 0007380 350.4544   9.6553 15.27546180122692
CICERO 7                
1 43143U 18004AJ  20087.44359483  .00001647  00000-0  68776-4 0  9991
2 43143  97.4532 160.0116 0007169   2.6893 357.4382 15.25066646122618
GOMX-4B                 
1 43196U 18015E   20087.61791590  .00000339  00000-0  16830-4 0  9990
2 43196  97.4227 216.8493 0019690  36.3735 323.8831 15.24182310119434
GOMX-4A                 
1 43197U 18015F   20087.58554603  .00000799  00000-0  35415-4 0  9999
2 43197  97.4226 216.8826 0020215  37.2661  18.8925 15.24380900119448
1KUNS-PF                
1 43466U 98067NP  20087.46375884  .00091280  00000-0  36975-3 0  9998
2 43466  51.6302 324.0191 0003275 189.4184 170.6759 15.85519966107439
UBAKUSAT                
1 43467U 98067NQ  20087.42336640  .00024518  00000-0  19280-3 0  9992
2 43467  51.6350 342.6886 0002153 106.8016 253.3218 15.71343582107197
